CCSDS_OMM_VERS = 2.0
CREATION_DATE  = 
ORIGINATOR     = 

OBJECT_NAME    = COSMOS 2228
OBJECT_ID      = 1992-094A
CENTER_NAME    = EARTH
REF_FRAME      = TEME
TIME_SYSTEM    = UTC
MEAN_ELEMENT_THEORY = SGP/SGP4

EPOCH          = 2025-11-22T13:35:23.448768
MEAN_MOTION    = 14.96593793
ECCENTRICITY   = .00166115
INCLINATION    = 82.5174
RA_OF_ASC_NODE = 339.8373
ARG_OF_PERICENTER = 305.8957
MEAN_ANOMALY   = 54.0722

EPHEMERIS_TYPE = 0
CLASSIFICATION_TYPE = U
NORAD_CAT_ID   = 22286
ELEMENT_SET_NO = 999
REV_AT_EPOCH   = 76003
BSTAR          = .18994363E-3
MEAN_MOTION_DOT = .2193E-4
MEAN_MOTION_DDOT = 0

CCSDS_OMM_VERS = 2.0
CREATION_DATE  = 
ORIGINATOR     = 

OBJECT_NAME    = SL-16 R/B
OBJECT_ID      = 1993-016B
CENTER_NAME    = EARTH
REF_FRAME      = TEME
TIME_SYSTEM    = UTC
MEAN_ELEMENT_THEORY = SGP/SGP4

EPOCH          = 2025-11-22T13:29:07.603584
MEAN_MOTION    = 14.15287465
ECCENTRICITY   = .0008478
INCLINATION    = 71.0081
RA_OF_ASC_NODE = 80.1801
ARG_OF_PERICENTER = 135.2276
MEAN_ANOMALY   = 224.9532

EPHEMERIS_TYPE = 0
CLASSIFICATION_TYPE = U
NORAD_CAT_ID   = 22566
ELEMENT_SET_NO = 999
REV_AT_EPOCH   = 68701
BSTAR          = .13040585E-3
MEAN_MOTION_DOT = .206E-5
MEAN_MOTION_DDOT = 0

CCSDS_OMM_VERS = 2.0
CREATION_DATE  = 
ORIGINATOR     = 

OBJECT_NAME    = COSMOS 2242
OBJECT_ID      = 1993-024A
CENTER_NAME    = EARTH
REF_FRAME      = TEME
TIME_SYSTEM    = UTC
MEAN_ELEMENT_THEORY = SGP/SGP4

EPOCH          = 2025-11-22T15:17:35.213568
MEAN_MOTION    = 14.95987645
ECCENTRICITY   = .00150819
INCLINATION    = 82.5201
RA_OF_ASC_NODE = 9.0575
ARG_OF_PERICENTER = 308.6181
MEAN_ANOMALY   = 51.3690

EPHEMERIS_TYPE = 0
CLASSIFICATION_TYPE = U
NORAD_CAT_ID   = 22626
ELEMENT_SET_NO = 999
REV_AT_EPOCH   = 76438
BSTAR          = .15705008E-3
MEAN_MOTION_DOT = .1789E-4
MEAN_MOTION_DDOT = 0

CCSDS_OMM_VERS = 2.0
CREATION_DATE  = 
ORIGINATOR     = 

OBJECT_NAME    = SL-16 R/B
OBJECT_ID      = 1993-059B
CENTER_NAME    = EARTH
REF_FRAME      = TEME
TIME_SYSTEM    = UTC
MEAN_ELEMENT_THEORY = SGP/SGP4

EPOCH          = 2025-11-22T04:37:30.512928
MEAN_MOTION    = 14.17208654
ECCENTRICITY   = .00167423
INCLINATION    = 70.9901
RA_OF_ASC_NODE = 237.8120
ARG_OF_PERICENTER = 5.9388
MEAN_ANOMALY   = 354.1931

EPHEMERIS_TYPE = 0
CLASSIFICATION_TYPE = U
NORAD_CAT_ID   = 22803
ELEMENT_SET_NO = 999
REV_AT_EPOCH   = 66430
BSTAR          = -.55061019E-4
MEAN_MOTION_DOT = -.159E-5
MEAN_MOTION_DDOT = 0

CCSDS_OMM_VERS = 2.0
CREATION_DATE  = 
ORIGINATOR     = 

OBJECT_NAME    = ARIANE 40 R/B
OBJECT_ID      = 1993-061H
CENTER_NAME    = EARTH
REF_FRAME      = TEME
TIME_SYSTEM    = UTC
MEAN_ELEMENT_THEORY = SGP/SGP4

EPOCH          = 2025-11-22T05:26:31.083360
MEAN_MOTION    = 14.32782628
ECCENTRICITY   = .00098126
INCLINATION    = 98.5101
RA_OF_ASC_NODE = 32.1278
ARG_OF_PERICENTER = 238.8963
MEAN_ANOMALY   = 121.1258

EPHEMERIS_TYPE = 0
CLASSIFICATION_TYPE = U
NORAD_CAT_ID   = 22830
ELEMENT_SET_NO = 999
REV_AT_EPOCH   = 67871
BSTAR          = .12972073E-3
MEAN_MOTION_DOT = .31E-5
MEAN_MOTION_DDOT = 0

CCSDS_OMM_VERS = 2.0
CREATION_DATE  = 
ORIGINATOR     = 

OBJECT_NAME    = COSMOS 2278
OBJECT_ID      = 1994-023A
CENTER_NAME    = EARTH
REF_FRAME      = TEME
TIME_SYSTEM    = UTC
MEAN_ELEMENT_THEORY = SGP/SGP4

EPOCH          = 2025-11-22T14:11:39.185664
MEAN_MOTION    = 14.14347125
ECCENTRICITY   = .00095028
INCLINATION    = 71.0557
RA_OF_ASC_NODE = 39.1628
ARG_OF_PERICENTER = 206.2032
MEAN_ANOMALY   = 153.8611

EPHEMERIS_TYPE = 0
CLASSIFICATION_TYPE = U
NORAD_CAT_ID   = 23087
ELEMENT_SET_NO = 999
REV_AT_EPOCH   = 62966
BSTAR          = .18008574E-3
MEAN_MOTION_DOT = .297E-5
MEAN_MOTION_DDOT = 0

CCSDS_OMM_VERS = 2.0
CREATION_DATE  = 
ORIGINATOR     = 

OBJECT_NAME    = SL-16 R/B
OBJECT_ID      = 1994-023B
CENTER_NAME    = EARTH
REF_FRAME      = TEME
TIME_SYSTEM    = UTC
MEAN_ELEMENT_THEORY = SGP/SGP4

EPOCH          = 2025-11-22T08:00:00.989856
MEAN_MOTION    = 14.14991338
ECCENTRICITY   = .00011473
INCLINATION    = 70.9989
RA_OF_ASC_NODE = 296.3399
ARG_OF_PERICENTER = 127.4552
MEAN_ANOMALY   = 232.6675

EPHEMERIS_TYPE = 0
CLASSIFICATION_TYPE = U
NORAD_CAT_ID   = 23088
ELEMENT_SET_NO = 999
REV_AT_EPOCH   = 63090
BSTAR          = .2550969E-4
MEAN_MOTION_DOT = .2E-7
MEAN_MOTION_DDOT = 0

CCSDS_OMM_VERS = 2.0
CREATION_DATE  = 
ORIGINATOR     = 

OBJECT_NAME    = SL-16 R/B
OBJECT_ID      = 1994-074B
CENTER_NAME    = EARTH
REF_FRAME      = TEME
TIME_SYSTEM    = UTC
MEAN_ELEMENT_THEORY = SGP/SGP4

EPOCH          = 2025-11-22T15:54:04.332960
MEAN_MOTION    = 14.79256135
ECCENTRICITY   = .00060101
INCLINATION    = 97.7226
RA_OF_ASC_NODE = 356.7631
ARG_OF_PERICENTER = 197.8643
MEAN_ANOMALY   = 275.3203

EPHEMERIS_TYPE = 0
CLASSIFICATION_TYPE = U
NORAD_CAT_ID   = 23343
ELEMENT_SET_NO = 999
REV_AT_EPOCH   = 67142
BSTAR          = .76677303E-4
MEAN_MOTION_DOT = .521E-5
MEAN_MOTION_DDOT = 0

CCSDS_OMM_VERS = 2.0
CREATION_DATE  = 
ORIGINATOR     = 

OBJECT_NAME    = SL-16 R/B
OBJECT_ID      = 1994-077B
CENTER_NAME    = EARTH
REF_FRAME      = TEME
TIME_SYSTEM    = UTC
MEAN_ELEMENT_THEORY = SGP/SGP4

EPOCH          = 2025-11-22T03:28:31.371456
MEAN_MOTION    = 14.15548061
ECCENTRICITY   = .00044808
INCLINATION    = 70.9826
RA_OF_ASC_NODE = 218.7386
ARG_OF_PERICENTER = 300.7871
MEAN_ANOMALY   = 59.2810

EPHEMERIS_TYPE = 0
CLASSIFICATION_TYPE = U
NORAD_CAT_ID   = 23405
ELEMENT_SET_NO = 999
REV_AT_EPOCH   = 60101
BSTAR          = -.33624163E-4
MEAN_MOTION_DOT = -.114E-5
MEAN_MOTION_DDOT = 0

CCSDS_OMM_VERS = 2.0
CREATION_DATE  = 
ORIGINATOR     = 

OBJECT_NAME    = ARIANE 40+ R/B
OBJECT_ID      = 1995-021B
CENTER_NAME    = EARTH
REF_FRAME      = TEME
TIME_SYSTEM    = UTC
MEAN_ELEMENT_THEORY = SGP/SGP4

EPOCH          = 2025-11-22T05:38:53.066688
MEAN_MOTION    = 14.39672808
ECCENTRICITY   = .00078917
INCLINATION    = 98.4676
RA_OF_ASC_NODE = 34.0697
ARG_OF_PERICENTER = 103.2232
MEAN_ANOMALY   = 324.2220

EPHEMERIS_TYPE = 0
CLASSIFICATION_TYPE = U
NORAD_CAT_ID   = 23561
ELEMENT_SET_NO = 999
REV_AT_EPOCH   = 60378
BSTAR          = .1418886E-3
MEAN_MOTION_DOT = .4E-5
MEAN_MOTION_DDOT = 0

CCSDS_OMM_VERS = 2.0
CREATION_DATE  = 
ORIGINATOR     = 

OBJECT_NAME    = SL-16 R/B
OBJECT_ID      = 1995-058B
CENTER_NAME    = EARTH
REF_FRAME      = TEME
TIME_SYSTEM    = UTC
MEAN_ELEMENT_THEORY = SGP/SGP4

EPOCH          = 2025-11-22T15:23:15.115488
MEAN_MOTION    = 14.15474756
ECCENTRICITY   = .00149448
INCLINATION    = 71.0225
RA_OF_ASC_NODE = 45.0004
ARG_OF_PERICENTER = 280.8296
MEAN_ANOMALY   = 79.1144

EPHEMERIS_TYPE = 0
CLASSIFICATION_TYPE = U
NORAD_CAT_ID   = 23705
ELEMENT_SET_NO = 999
REV_AT_EPOCH   = 55270
BSTAR          = -.5597637E-4
MEAN_MOTION_DOT = -.157E-5
MEAN_MOTION_DDOT = 0

CCSDS_OMM_VERS = 2.0
CREATION_DATE  = 
ORIGINATOR     = 

OBJECT_NAME    = SL-16 R/B
OBJECT_ID      = 1996-051B
CENTER_NAME    = EARTH
REF_FRAME      = TEME
TIME_SYSTEM    = UTC
MEAN_ELEMENT_THEORY = SGP/SGP4

EPOCH          = 2025-11-22T14:06:06.836832
MEAN_MOTION    = 14.12393950
ECCENTRICITY   = .00186789
INCLINATION    = 70.7609
RA_OF_ASC_NODE = 41.9388
ARG_OF_PERICENTER = 286.4569
MEAN_ANOMALY   = 73.4498

EPHEMERIS_TYPE = 0
CLASSIFICATION_TYPE = U
NORAD_CAT_ID   = 24298
ELEMENT_SET_NO = 999
REV_AT_EPOCH   = 50652
BSTAR          = .1592983E-4
MEAN_MOTION_DOT = -.2E-6
MEAN_MOTION_DDOT = 0

