COSMOS 2228             
1 22286U 92094A   25326.56624362  .00002193  00000+0  18994-3 0  9994
2 22286  82.5174 339.8373 0016611 305.8957  54.0722 14.96593793760039
SL-16 R/B               
1 22566U 93016B   25326.56189356  .00000206  00000+0  13041-3 0  9990
2 22566  71.0081  80.1801 0008478 135.2276 224.9532 14.15287465687013
COSMOS 2242             
1 22626U 93024A   25326.63721312  .00001789  00000+0  15705-3 0  9994
2 22626  82.5201   9.0575 0015081 308.6181  51.3690 14.95987645764386
SL-16 R/B               
1 22803U 93059B   25326.19271427 -.00000159  00000+0 -55061-4 0  9999
2 22803  70.9901 237.8120 0016742   5.9388 354.1931 14.17208654664302
ARIANE 40 R/B           
1 22830U 93061H   25326.22674865  .00000310  00000+0  12972-3 0  9999
2 22830  98.5101  32.1278 0009812 238.8963 121.1258 14.32782628678715
COSMOS 2278             
1 23087U 94023A   25326.59142576  .00000297  00000+0  18009-3 0  9993
2 23087  71.0557  39.1628 0009502 206.2032 153.8611 14.14347125629663
SL-16 R/B               
1 23088U 94023B   25326.33334479  .00000002  00000+0  25510-4 0  9991
2 23088  70.9989 296.3399 0001147 127.4552 232.6675 14.14991338630907
SL-16 R/B               
1 23343U 94074B   25326.66255015  .00000521  00000+0  76677-4 0  9991
2 23343  97.7226 356.7631 0006010 197.8643 275.3203 14.79256135671421
SL-16 R/B               
1 23405U 94077B   25326.14480754 -.00000114  00000+0 -33624-4 0  9991
2 23405  70.9826 218.7386 0004480 300.7871  59.2810 14.15548061601013
ARIANE 40+ R/B          
1 23561U 95021B   25326.23533642  .00000400  00000+0  14189-3 0  9999
2 23561  98.4676  34.0697 0007891 103.2232 324.2220 14.39672808603783
SL-16 R/B               
1 23705U 95058B   25326.64114717 -.00000157  00000+0 -55976-4 0  9993
2 23705  71.0225  45.0004 0014944 280.8296  79.1144 14.15474756552705
SL-16 R/B               
1 24298U 96051B   25326.58757913 -.00000020  00000+0  15930-4 0  9993
2 24298  70.7609  41.9388 0018678 286.4569  73.4498 14.12393950506529
